H1 CPF 01  gfz 2022 07 22 12  7032 tandemx   
H2 1003001  6202 36605    2022 07 22 12 59 42 2022 07 27 00 00 42   120 1 1  0 0 0
H9
10 0 59785  85662.000000  0    -800318.724   5952326.932   3365368.152
10 0 59785  85782.000000  0    -662479.195   6361611.476   2550776.646
10 0 59785  85902.000000  0    -506890.692   6657092.335   1691265.434
10 0 59785  86022.000000  0    -338314.418   6833341.207    801971.728
10 0 59785  86142.000000  0    -161814.936   6887122.453   -101442.048
10 0 59785  86262.000000  0      17369.395   6817456.010  -1003072.354
10 0 59785  86382.000000  0     193960.077   6625633.578  -1887064.948
10 0 59786    102.000000  0     362771.014   6315187.102  -2737901.391
10 0 59786    222.000000  0     518837.841   5891814.661  -3540676.016
10 0 59786    342.000000  0     657541.564   5363264.960  -4281359.375
10 0 59786    462.000000  0     774723.102   4739182.966  -4947042.238
10 0 59786    582.000000  0     866786.095   4030921.692  -5526155.432
10 0 59786    702.000000  0     930785.537   3251325.501  -6008662.682
10 0 59786    822.000000  0     964500.165   2414489.446  -6386224.452
10 0 59786    942.000000  0     966488.243   1535500.441  -6652329.841
10 0 59786   1062.000000  0     936125.255    630166.406  -6802398.159
10 0 59786   1182.000000  0     873623.476   -285264.492  -6833849.818
10 0 59786   1302.000000  0     780033.074  -1194390.084  -6746145.250
10 0 59786   1422.000000  0     657224.441  -2080940.405  -6540791.388
10 0 59786   1542.000000  0     507853.084  -2929060.089  -6221319.253
10 0 59786   1662.000000  0     335306.092  -3723587.894  -5793232.151
10 0 59786   1782.000000  0     143631.373  -4450326.425  -5263919.354
10 0 59786   1902.000000  0     -62548.399  -5096297.026  -4642539.836
10 0 59786   2022.000000  0    -278137.299  -5649977.524  -3939875.499
10 0 59786   2142.000000  0    -497680.783  -6101517.241  -3168153.704
10 0 59786   2262.000000  0    -715491.157  -6442923.558  -2340841.696
10 0 59786   2382.000000  0    -925781.462  -6668216.781  -1472415.733
10 0 59786   2502.000000  0   -1122804.345  -6773547.794   -578106.833
10 0 59786   2622.000000  0   -1300992.576  -6757273.966    326370.695
10 0 59786   2742.000000  0   -1455097.849  -6619991.530   1225101.961
10 0 59786   2862.000000  0   -1580324.522  -6364523.377   2102260.073
10 0 59786   2982.000000  0   -1672454.108  -5995861.436   2942394.348
10 0 59786   3102.000000  0   -1727957.402  -5521064.790   3730710.843
10 0 59786   3222.000000  0   -1744090.693  -4949116.811   4453338.763
10 0 59786   3342.000000  0   -1718974.432  -4290746.276   5097576.538
10 0 59786   3462.000000  0   -1651653.705  -3558217.539   5652115.684
10 0 59786   3582.000000  0   -1542137.626  -2765091.745   6107237.321
10 0 59786   3702.000000  0   -1391416.565  -1925967.882   6454976.169
10 0 59786   3822.000000  0   -1201458.405  -1056210.306   6689253.644
10 0 59786   3942.000000  0    -975184.772   -171664.451   6805978.736
10 0 59786   4062.000000  0    -716426.943    711632.338   6803114.235
10 0 59786   4182.000000  0    -429860.903   1577740.874   6680710.759
10 0 59786   4302.000000  0    -120922.684   2411107.532   6440905.978
10 0 59786   4422.000000  0     204294.250   3196843.416   6087889.285
10 0 59786   4542.000000  0     539157.353   3920991.429   5627833.264
10 0 59786   4662.000000  0     876627.694   4570777.851   5068791.395
10 0 59786   4782.000000  0    1209405.340   5134843.450   4420563.013
10 0 59786   4902.000000  0    1530083.663   5603449.399   3694525.827
10 0 59786   5022.000000  0    1831310.026   5968654.493   2903441.955
10 0 59786   5142.000000  0    2105951.894   6224461.132   2061232.514
10 0 59786   5262.000000  0    2347258.665   6366921.617   1182728.203
10 0 59786   5382.000000  0    2549019.468   6394203.022    283400.987
10 0 59786   5502.000000  0    2705710.485   6306608.880   -620915.800
10 0 59786   5622.000000  0    2812629.700   6106559.241  -1514314.211
10 0 59786   5742.000000  0    2866015.417   5798528.013  -2381099.308
10 0 59786   5862.000000  0    2863145.323   5388940.123  -3206071.578
10 0 59786   5982.000000  0    2802413.567   4886029.970  -3974798.329
10 0 59786   6102.000000  0    2683383.526   4299665.846  -4673866.394
10 0 59786   6222.000000  0    2506815.852   3641146.729  -5291112.340
10 0 59786   6342.000000  0    2274672.465   2922976.620  -5815826.742
10 0 59786   6462.000000  0    1990096.588   2158621.055  -6238930.787
10 0 59786   6582.000000  0    1657368.902   1362251.247  -6553121.560
10 0 59786   6702.000000  0    1281842.806    548482.221  -6752986.360
10 0 59786   6822.000000  0     869858.268   -267891.732  -6835087.223
10 0 59786   6942.000000  0     428634.975  -1072161.209  -6798013.326
10 0 59786   7062.000000  0     -33851.670  -1849959.947  -6642400.828
10 0 59786   7182.000000  0    -509010.240  -2587513.698  -6370923.636
10 0 59786   7302.000000  0    -987788.917  -3271880.191  -5988254.012
10 0 59786   7422.000000  0   -1460843.186  -3891174.167  -5500989.744
10 0 59786   7542.000000  0   -1918713.651  -4434774.453  -4917551.934
10 0 59786   7662.000000  0   -2352012.216  -4893511.598  -4248051.586
10 0 59786   7782.000000  0   -2751613.054  -5259830.341  -3504124.462
10 0 59786   7902.000000  0   -3108843.606  -5527922.970  -2698737.064
10 0 59786   8022.000000  0   -3415671.955  -5693831.390  -1845966.324
10 0 59786   8142.000000  0   -3664886.683  -5755514.770   -960755.233
10 0 59786   8262.000000  0   -3850263.631  -5712879.600    -58648.009
10 0 59786   8382.000000  0   -3966714.636  -5567770.451    844489.020
10 0 59786   8502.000000  0   -4010414.870  -5323921.583   1732754.860
10 0 59786   8622.000000  0   -3978904.808  -4986869.425   2590503.475
10 0 59786   8742.000000  0   -3871164.009  -4563828.666   3402627.605
10 0 59786   8862.000000  0   -3687655.573  -4063536.210   4154831.554
10 0 59786   8982.000000  0   -3430339.694  -3496065.960   4833887.556
10 0 59786   9102.000000  0   -3102656.397  -2872619.293   5427869.089
10 0 59786   9222.000000  0   -2709478.631  -2205298.278   5926357.936
10 0 59786   9342.000000  0   -2257036.834  -1506866.746   6320622.931
10 0 59786   9462.000000  0   -1752816.930   -790502.542   6603769.180
10 0 59786   9582.000000  0   -1205431.723    -69545.117   6770852.248
10 0 59786   9702.000000  0    -624472.189    642752.211   6818956.692
10 0 59786   9822.000000  0     -20339.871   1333464.743   6747244.492
10 0 59786   9942.000000  0     595939.137   1990230.727   6556969.113
10 0 59786  10062.000000  0    1212915.181   2601472.683   6251454.488
10 0 59786  10182.000000  0    1818926.864   3156601.386   5836040.215
10 0 59786  10302.000000  0    2402320.836   3646201.679   5317994.472
10 0 59786  10422.000000  0    2951677.323   4062196.923   4706393.361
10 0 59786  10542.000000  0    3456036.292   4397986.925   4011966.021
10 0 59786  10662.000000  0    3905117.625   4648557.238   3246911.327
10 0 59786  10782.000000  0    4289536.556   4810560.763   2424686.519
10 0 59786  10902.000000  0    4601003.084   4882363.202   1559765.509
10 0 59786  11022.000000  0    4832500.482   4864054.949    667381.150
10 0 59786  11142.000000  0    4978444.145   4757428.830   -236750.850
10 0 59786  11262.000000  0    5034808.776   4565920.620  -1136718.847
10 0 59786  11382.000000  0    4999224.480   4294516.459  -2016703.031
10 0 59786  11502.000000  0    4871040.626   3949630.408  -2861260.403
10 0 59786  11622.000000  0    4651354.522   3538954.577  -3655600.901
10 0 59786  11742.000000  0    4343004.168   3071286.685  -4385848.402
10 0 59786  11862.000000  0    3950526.730   2556338.974  -5039281.299
10 0 59786  11982.000000  0    3480085.086   2004533.307  -5604548.404
10 0 59786  12102.000000  0    2939363.717   1426788.359  -6071857.695
10 0 59786  12222.000000  0    2337436.290    834303.332  -6433135.052
10 0 59786  12342.000000  0    1684609.401    238342.728  -6682151.416
10 0 59786  12462.000000  0     992246.506   -349973.661  -6814619.873
10 0 59786  12582.000000  0     272571.332   -919874.257  -6828262.778
10 0 59786  12702.000000  0    -461544.247  -1461127.899  -6722844.651
10 0 59786  12822.000000  0   -1196803.993  -1964221.980  -6500175.910
10 0 59786  12942.000000  0   -1919722.628  -2420526.420  -6164086.127
10 0 59786  13062.000000  0   -2616867.592  -2822440.035  -5720364.627
10 0 59786  13182.000000  0   -3275104.182  -3163517.199  -5176671.643
10 0 59786  13302.000000  0   -3881842.895  -3438574.594  -4542418.480
10 0 59786  13422.000000  0   -4425282.529  -3643773.809  -3828614.975
10 0 59786  13542.000000  0   -4894644.090  -3776678.260  -3047688.055
10 0 59786  13662.000000  0   -5280391.312  -3836283.409  -2213272.081
10 0 59786  13782.000000  0   -5574431.681  -3823018.413  -1339973.467
10 0 59786  13902.000000  0   -5770292.628  -3738718.596   -443114.296
10 0 59786  14022.000000  0   -5863268.444  -3586569.221    461540.636
10 0 59786  14142.000000  0   -5850533.964  -3371021.794   1358068.245
10 0 59786  14262.000000  0   -5731219.757  -3097683.558   2230677.687
10 0 59786  14382.000000  0   -5506446.658  -2773182.758   3063997.436
10 0 59786  14502.000000  0   -5179320.831  -2405015.444   3843353.413
10 0 59786  14622.000000  0   -4754888.153  -2001375.555   4555033.990
10 0 59786  14742.000000  0   -4240049.112  -1570973.182   5186532.889
10 0 59786  14862.000000  0   -3643439.350  -1122847.776   5726767.054
10 0 59786  14982.000000  0   -2975278.109   -666178.902   6166268.901
10 0 59786  15102.000000  0   -2247185.589   -210097.599   6497348.419
10 0 59786  15222.000000  0   -1471973.996    236495.931   6714220.669
10 0 59786  15342.000000  0    -663418.996    665103.922   6813100.186
10 0 59786  15462.000000  0     163985.720   1067791.487   6792262.879
10 0 59786  15582.000000  0     995287.600   1437332.905   6652074.136
10 0 59786  15702.000000  0    1815344.732   1767341.602   6394982.759
99
